[{"OBJECT_NAME":"ORBCOMM FM116","OBJECT_ID":"2015-081L","EPOCH":"2026-03-09T05:44:04.657056","MEAN_MOTION":14.5872653,"ECCENTRICITY":0.00024763,"INCLINATION":47.0036,"RA_OF_ASC_NODE":23.149,"ARG_OF_PERICENTER":312.0153,"MEAN_ANOMALY":48.0522,"EPHEMERIS_TYPE":0,"CLASSIFICATION_TYPE":"U","NORAD_CAT_ID":41189,"ELEMENT_SET_NO":999,"REV_AT_EPOCH":54434,"BSTAR":0.00026879569,"MEAN_MOTION_DOT":1.096e-5,"MEAN_MOTION_DDOT":0},{"OBJECT_NAME":"CZ-2C DEB","OBJECT_ID":"2014-066C","EPOCH":"2026-03-09T20:50:07.902528","MEAN_MOTION":14.31889366,"ECCENTRICITY":0.01603808,"INCLINATION":97.9542,"RA_OF_ASC_NODE":197.2206,"ARG_OF_PERICENTER":140.9677,"MEAN_ANOMALY":220.3212,"EPHEMERIS_TYPE":0,"CLASSIFICATION_TYPE":"U","NORAD_CAT_ID":40288,"ELEMENT_SET_NO":999,"REV_AT_EPOCH":59002,"BSTAR":0.0014936823,"MEAN_MOTION_DOT":4.571e-5,"MEAN_MOTION_DDOT":0}]
